[{"OBJECT_NAME":"CZ-3C DEB","OBJECT_ID":"2010-057BM","EPOCH":"2026-03-28T12:12:44.153568","MEAN_MOTION":2.23731001,"ECCENTRICITY":0.71835776,"INCLINATION":20.1891,"RA_OF_ASC_NODE":91.7264,"ARG_OF_PERICENTER":173.8973,"MEAN_ANOMALY":205.8183,"EPHEMERIS_TYPE":0,"CLASSIFICATION_TYPE":"U","NORAD_CAT_ID":44527,"ELEMENT_SET_NO":999,"REV_AT_EPOCH":7660,"BSTAR":0.00060926247,"MEAN_MOTION_DOT":8.1e-7,"MEAN_MOTION_DDOT":0},{"OBJECT_NAME":"COSMOS 2541","OBJECT_ID":"2019-065A","EPOCH":"2026-03-26T12:40:37.648128","MEAN_MOTION":2.00624901,"ECCENTRICITY":0.64811488,"INCLINATION":62.7115,"RA_OF_ASC_NODE":164.6406,"ARG_OF_PERICENTER":272.1807,"MEAN_ANOMALY":20.4143,"EPHEMERIS_TYPE":0,"CLASSIFICATION_TYPE":"U","NORAD_CAT_ID":44552,"ELEMENT_SET_NO":999,"REV_AT_EPOCH":4756,"BSTAR":0,"MEAN_MOTION_DOT":2.8e-7,"MEAN_MOTION_DDOT":0},{"OBJECT_NAME":"FREGAT R/B","OBJECT_ID":"2019-065B","EPOCH":"2026-03-18T23:43:44.906016","MEAN_MOTION":2.01521004,"ECCENTRICITY":0.66872204,"INCLINATION":63.3368,"RA_OF_ASC_NODE":162.4962,"ARG_OF_PERICENTER":261.3599,"MEAN_ANOMALY":23.5444,"EPHEMERIS_TYPE":0,"CLASSIFICATION_TYPE":"U","NORAD_CAT_ID":44553,"ELEMENT_SET_NO":999,"REV_AT_EPOCH":4768,"BSTAR":0,"MEAN_MOTION_DOT":9.47e-6,"MEAN_MOTION_DDOT":0},{"OBJECT_NAME":"COSMOS 1897 DEB","OBJECT_ID":"1987-096G","EPOCH":"2026-03-28T05:37:43.054176","MEAN_MOTION":1.00481729,"ECCENTRICITY":0.002144,"INCLINATION":10.9817,"RA_OF_ASC_NODE":326.8491,"ARG_OF_PERICENTER":299.412,"MEAN_ANOMALY":237.7806,"EPHEMERIS_TYPE":0,"CLASSIFICATION_TYPE":"U","NORAD_CAT_ID":44572,"ELEMENT_SET_NO":999,"REV_AT_EPOCH":7017,"BSTAR":0,"MEAN_MOTION_DOT":-2.4e-7,"MEAN_MOTION_DDOT":0},{"OBJECT_NAME":"ARIANE 44LP DEB","OBJECT_ID":"1992-060J","EPOCH":"2026-03-28T23:19:11.956224","MEAN_MOTION":2.23474572,"ECCENTRICITY":0.7183932,"INCLINATION":7.1751,"RA_OF_ASC_NODE":359.1369,"ARG_OF_PERICENTER":338.7285,"MEAN_ANOMALY":232.8298,"EPHEMERIS_TYPE":0,"CLASSIFICATION_TYPE":"U","NORAD_CAT_ID":44573,"ELEMENT_SET_NO":999,"REV_AT_EPOCH":9774,"BSTAR":-0.0029226,"MEAN_MOTION_DOT":-4.58e-6,"MEAN_MOTION_DDOT":0},{"OBJECT_NAME":"LUCH DEB","OBJECT_ID":"1994-082G","EPOCH":"2026-03-28T15:20:24.613728","MEAN_MOTION":1.00693787,"ECCENTRICITY":0.0018243,"INCLINATION":14.6031,"RA_OF_ASC_NODE":354.6566,"ARG_OF_PERICENTER":88.832,"MEAN_ANOMALY":89.0858,"EPHEMERIS_TYPE":0,"CLASSIFICATION_TYPE":"U","NORAD_CAT_ID":44582,"ELEMENT_SET_NO":999,"REV_AT_EPOCH":4543,"BSTAR":0,"MEAN_MOTION_DOT":-3.73e-6,"MEAN_MOTION_DDOT":0},{"OBJECT_NAME":"SL-12 DEB","OBJECT_ID":"1999-027E","EPOCH":"2026-03-28T20:02:25.632960","MEAN_MOTION":1.46011788,"ECCENTRICITY":0.32252682,"INCLINATION":7.1952,"RA_OF_ASC_NODE":123.9634,"ARG_OF_PERICENTER":158.0869,"MEAN_ANOMALY":261.7064,"EPHEMERIS_TYPE":0,"CLASSIFICATION_TYPE":"U","NORAD_CAT_ID":44588,"ELEMENT_SET_NO":999,"REV_AT_EPOCH":6588,"BSTAR":0,"MEAN_MOTION_DOT":-7.5e-7,"MEAN_MOTION_DDOT":0},{"OBJECT_NAME":"EUTELSAT 5 WEST B","OBJECT_ID":"2019-067A","EPOCH":"2026-03-29T04:27:06.658272","MEAN_MOTION":1.00271444,"ECCENTRICITY":0.0003273,"INCLINATION":0.0658,"RA_OF_ASC_NODE":356.5785,"ARG_OF_PERICENTER":15.305,"MEAN_ANOMALY":236.4646,"EPHEMERIS_TYPE":0,"CLASSIFICATION_TYPE":"U","NORAD_CAT_ID":44624,"ELEMENT_SET_NO":999,"REV_AT_EPOCH":2363,"BSTAR":0,"MEAN_MOTION_DOT":-6.2e-7,"MEAN_MOTION_DDOT":0},{"OBJECT_NAME":"BREEZE-M R/B","OBJECT_ID":"2019-067C","EPOCH":"2026-03-27T18:38:41.612928","MEAN_MOTION":0.9385075,"ECCENTRICITY":0.6504118,"INCLINATION":23.1025,"RA_OF_ASC_NODE":61.2299,"ARG_OF_PERICENTER":11.2165,"MEAN_ANOMALY":357.9033,"EPHEMERIS_TYPE":0,"CLASSIFICATION_TYPE":"U","NORAD_CAT_ID":44626,"ELEMENT_SET_NO":999,"REV_AT_EPOCH":2033,"BSTAR":0,"MEAN_MOTION_DOT":-1.16e-6,"MEAN_MOTION_DDOT":0},{"OBJECT_NAME":"TJS-4","OBJECT_ID":"2019-070A","EPOCH":"2026-03-27T13:30:40.220064","MEAN_MOTION":1.00266022,"ECCENTRICITY":0.0002369,"INCLINATION":0.0142,"RA_OF_ASC_NODE":183.8744,"ARG_OF_PERICENTER":205.5226,"MEAN_ANOMALY":81.7124,"EPHEMERIS_TYPE":0,"CLASSIFICATION_TYPE":"U","NORAD_CAT_ID":44637,"ELEMENT_SET_NO":999,"REV_AT_EPOCH":2372,"BSTAR":0,"MEAN_MOTION_DOT":0,"MEAN_MOTION_DDOT":0},{"OBJECT_NAME":"ATLAS 5 CENTAUR DEB","OBJECT_ID":"2018-079X","EPOCH":"2026-03-28T20:55:48.217440","MEAN_MOTION":1.72652805,"ECCENTRICITY":0.4631367,"INCLINATION":12.9221,"RA_OF_ASC_NODE":67.5917,"ARG_OF_PERICENTER":247.3933,"MEAN_ANOMALY":58.1959,"EPHEMERIS_TYPE":0,"CLASSIFICATION_TYPE":"U","NORAD_CAT_ID":44661,"ELEMENT_SET_NO":999,"REV_AT_EPOCH":4721,"BSTAR":0,"MEAN_MOTION_DOT":-9.8e-7,"MEAN_MOTION_DDOT":0},{"OBJECT_NAME":"ATLAS 5 CENTAUR DEB","OBJECT_ID":"2018-079AB","EPOCH":"2026-03-28T04:00:47.335392","MEAN_MOTION":1.68622654,"ECCENTRICITY":0.46572716,"INCLINATION":12.5873,"RA_OF_ASC_NODE":79.1379,"ARG_OF_PERICENTER":224.8359,"MEAN_ANOMALY":86.5703,"EPHEMERIS_TYPE":0,"CLASSIFICATION_TYPE":"U","NORAD_CAT_ID":44665,"ELEMENT_SET_NO":999,"REV_AT_EPOCH":4200,"BSTAR":0,"MEAN_MOTION_DOT":-8.0e-7,"MEAN_MOTION_DDOT":0},{"OBJECT_NAME":"ATLAS 5 CENTAUR DEB","OBJECT_ID":"2018-079AK","EPOCH":"2026-03-28T09:54:44.985888","MEAN_MOTION":1.77546962,"ECCENTRICITY":0.47069379,"INCLINATION":13.2863,"RA_OF_ASC_NODE":50.0759,"ARG_OF_PERICENTER":282.5072,"MEAN_ANOMALY":30.3968,"EPHEMERIS_TYPE":0,"CLASSIFICATION_TYPE":"U","NORAD_CAT_ID":44673,"ELEMENT_SET_NO":999,"REV_AT_EPOCH":4843,"BSTAR":0,"MEAN_MOTION_DOT":-1.36e-6,"MEAN_MOTION_DDOT":0},{"OBJECT_NAME":"ATLAS 5 CENTAUR DEB","OBJECT_ID":"2018-079AR","EPOCH":"2026-03-28T06:52:30.351360","MEAN_MOTION":1.7940282,"ECCENTRICITY":0.4692343,"INCLINATION":13.3475,"RA_OF_ASC_NODE":45.782,"ARG_OF_PERICENTER":291.0265,"MEAN_ANOMALY":25.9519,"EPHEMERIS_TYPE":0,"CLASSIFICATION_TYPE":"U","NORAD_CAT_ID":44679,"ELEMENT_SET_NO":999,"REV_AT_EPOCH":4522,"BSTAR":0,"MEAN_MOTION_DOT":-1.44e-6,"MEAN_MOTION_DDOT":0},{"OBJECT_NAME":"ATLAS 5 CENTAUR DEB","OBJECT_ID":"2018-079AS","EPOCH":"2026-03-26T02:23:27.589632","MEAN_MOTION":1.75588811,"ECCENTRICITY":0.46923028,"INCLINATION":13.2442,"RA_OF_ASC_NODE":55.4682,"ARG_OF_PERICENTER":270.5285,"MEAN_ANOMALY":37.9828,"EPHEMERIS_TYPE":0,"CLASSIFICATION_TYPE":"U","NORAD_CAT_ID":44680,"ELEMENT_SET_NO":999,"REV_AT_EPOCH":4400,"BSTAR":0,"MEAN_MOTION_DOT":-1.31e-6,"MEAN_MOTION_DDOT":0},{"OBJECT_NAME":"ATLAS 5 CENTAUR DEB","OBJECT_ID":"2018-079AX","EPOCH":"2026-03-28T07:05:13.683264","MEAN_MOTION":1.69261903,"ECCENTRICITY":0.45675686,"INCLINATION":12.5004,"RA_OF_ASC_NODE":80.3378,"ARG_OF_PERICENTER":224.0548,"MEAN_ANOMALY":88.9664,"EPHEMERIS_TYPE":0,"CLASSIFICATION_TYPE":"U","NORAD_CAT_ID":44685,"ELEMENT_SET_NO":999,"REV_AT_EPOCH":4213,"BSTAR":0,"MEAN_MOTION_DOT":-8.0e-7,"MEAN_MOTION_DDOT":0},{"OBJECT_NAME":"ATLAS 5 CENTAUR DEB","OBJECT_ID":"2018-079AY","EPOCH":"2026-03-27T10:28:22.953792","MEAN_MOTION":1.69097731,"ECCENTRICITY":0.46599033,"INCLINATION":12.5285,"RA_OF_ASC_NODE":79.2292,"ARG_OF_PERICENTER":227.1082,"MEAN_ANOMALY":83.0826,"EPHEMERIS_TYPE":0,"CLASSIFICATION_TYPE":"U","NORAD_CAT_ID":44686,"ELEMENT_SET_NO":999,"REV_AT_EPOCH":4219,"BSTAR":0,"MEAN_MOTION_DOT":-8.7e-7,"MEAN_MOTION_DDOT":0}]
