CZ-3C DEB               
1 44527U 10057BM  26087.50884437  .00000081  00000+0  60926-3 0  9991
2 44527  20.1891  91.7264 7183577 173.8973 205.8183  2.23731001 76605
COSMOS 2541             
1 44552U 19065A   26085.52821352  .00000028  00000+0  00000+0 0  9998
2 44552  62.7115 164.6406 6481148 272.1807  20.4143  2.00624901 47560
FREGAT R/B              
1 44553U 19065B   26077.98871419  .00000947  00000+0  00000+0 0  9999
2 44553  63.3368 162.4962 6687220 261.3599  23.5444  2.01521004 47680
COSMOS 1897 DEB         
1 44572U 87096G   26087.23452609 -.00000024  00000+0  00000+0 0  9991
2 44572  10.9817 326.8491 0021440 299.4120 237.7806  1.00481729 70171
ARIANE 44LP DEB         
1 44573U 92060J   26087.97166616 -.00000458  00000+0 -29226-2 0  9996
2 44573   7.1751 359.1369 7183932 338.7285 232.8298  2.23474572 97748
LUCH DEB                
1 44582U 94082G   26087.63917377 -.00000373  00000+0  00000+0 0  9994
2 44582  14.6031 354.6566 0018243  88.8320  89.0858  1.00693787 45437
SL-12 DEB               
1 44588U 99027E   26087.83501890 -.00000075  00000+0  00000+0 0  9994
2 44588   7.1952 123.9634 3225268 158.0869 261.7064  1.46011788 65887
EUTELSAT 5 WEST B       
1 44624U 19067A   26088.18549373 -.00000062  00000+0  00000+0 0  9994
2 44624   0.0658 356.5785 0003273  15.3050 236.4646  1.00271444 23637
BREEZE-M R/B            
1 44626U 19067C   26086.77687052 -.00000116  00000+0  00000+0 0  9996
2 44626  23.1025  61.2299 6504118  11.2165 357.9033  0.93850750 20332
TJS-4                   
1 44637U 19070A   26086.56296551  .00000000  00000+0  00000+0 0  9990
2 44637   0.0142 183.8744 0002369 205.5226  81.7124  1.00266022 23726
ATLAS 5 CENTAUR DEB     
1 44661U 18079X   26087.87208585 -.00000098  00000+0  00000+0 0  9998
2 44661  12.9221  67.5917 4631367 247.3933  58.1959  1.72652805 47213
ATLAS 5 CENTAUR DEB     
1 44665U 18079AB  26087.16721453 -.00000080  00000+0  00000+0 0  9999
2 44665  12.5873  79.1379 4657271 224.8359  86.5703  1.68622654 42009
ATLAS 5 CENTAUR DEB     
1 44673U 18079AK  26087.41302067 -.00000136  00000+0  00000+0 0  9994
2 44673  13.2863  50.0759 4706937 282.5072  30.3968  1.77546962 48432
ATLAS 5 CENTAUR DEB     
1 44679U 18079AR  26087.28646240 -.00000144  00000+0  00000+0 0  9998
2 44679  13.3475  45.7820 4692343 291.0265  25.9519  1.79402820 45224
ATLAS 5 CENTAUR DEB     
1 44680U 18079AS  26085.09962488 -.00000131  00000+0  00000+0 0  9998
2 44680  13.2442  55.4682 4692302 270.5285  37.9828  1.75588811 44004
ATLAS 5 CENTAUR DEB     
1 44685U 18079AX  26087.29529726 -.00000080  00000+0  00000+0 0  9994
2 44685  12.5004  80.3378 4567568 224.0548  88.9664  1.69261903 42134
ATLAS 5 CENTAUR DEB     
1 44686U 18079AY  26086.43637678 -.00000087  00000+0  00000+0 0  9993
2 44686  12.5285  79.2292 4659903 227.1082  83.0826  1.69097731 42198
